{"type":"FeatureCollection","features":[{"type":"Feature","geometry":{"type":"Point","coordinates":[17.1077,48.1486]},"properties":{"title":"YOUth IN TU-BA – počuť tvoj hlas v plánovaní budúcnosti Bratislavy","link":"https://mib.sk/projekt/youth-in-tu-ba-pocut-tvoj-hlas-v-planovani-buducnosti-bratislavy/","section":"—","status":"Realizácia","color":"#30287B","year":"2026"}},{"type":"Feature","geometry":{"type":"Point","coordinates":[17.11386179054373,48.192189054373465]},"properties":{"title":"Rozšírenie Šantiska na Kamzíku","link":"https://mib.sk/projekt/rozsirenie-santiska-na-kamziku/","section":"Nové Mesto","status":"Príprava","color":"#f4b860","year":"2025"}},{"type":"Feature","geometry":{"type":"Point","coordinates":[17.11193924313786,48.15142842712475]},"properties":{"title":"AntifragiCity – Sebaposilňujúce mesto, ktoré vďaka krízam silnie","link":"https://mib.sk/projekt/antifragicity/","section":"—","status":"Ukončené","color":"#29b826","year":"2025"}},{"type":"Feature","geometry":{"type":"Point","coordinates":[17.10408011531008,48.15447299031012]},"properties":{"title":"Udržiavacie práce objektov na Ventúrskej č. 22 a Sedlárskej č. 4","link":"https://mib.sk/projekt/udrziavacie-prace-objektov-na-venturskej-c-22-a-sedlarskej-c-4/","section":"Staré Mesto","status":"Ukončené","color":"#29b826","year":"2025"}},{"type":"Feature","geometry":{"type":"Point","coordinates":[17.045,48.19]},"properties":{"title":"Obnova bratislavských ulíc","link":"https://mib.sk/projekt/obnova-bratislavskych-ulic-2/","section":"Lamač","status":"Prebiehajúce","color":"#8a7fc8","year":"2025"}},{"type":"Feature","geometry":{"type":"Point","coordinates":[17.118104638542647,48.19501748149821]},"properties":{"title":"Lávka na Partizánskej lúke","link":"https://mib.sk/projekt/lavka-partizanska-luka/","section":"Nové Mesto","status":"Ukončené","color":"#29b826","year":"2025"}},{"type":"Feature","geometry":{"type":"Point","coordinates":[17.165944927165384,48.15305488845139]},"properties":{"title":"Vízia rozvoja územia Zimný prístav","link":"https://mib.sk/projekt/zimny-pristav/","section":"Ružinov","status":"Ukončené","color":"#29b826","year":"2025"}},{"type":"Feature","geometry":{"type":"Point","coordinates":[17.170184538333636,48.15588331557614]},"properties":{"title":"Nová štvrť na Mlynských Nivách","link":"https://mib.sk/projekt/nova-stvrt-na-mlynskych-nivach/","section":"Ružinov","status":"Ukončené","color":"#29b826","year":"2023"}},{"type":"Feature","geometry":{"type":"Point","coordinates":[17.165944927165384,48.15705488845139]},"properties":{"title":"Areál pre Ústav pamäti národa","link":"https://mib.sk/projekt/areal-pre-ustav-pamati-naroda/","section":"Ružinov","status":"Ukončené","color":"#29b826","year":"2023"}},{"type":"Feature","geometry":{"type":"Point","coordinates":[17.11386179054373,48.19618905437346]},"properties":{"title":"Klientske centrum PAAS","link":"https://mib.sk/projekt/klientske-centrum-paas/","section":"Nové Mesto","status":"Ukončené","color":"#29b826","year":"2023"}},{"type":"Feature","geometry":{"type":"Point","coordinates":[17.06,48.15]},"properties":{"title":"Zariadenie pre seniorov v Karlovej Vsi","link":"https://mib.sk/projekt/dom-seniorov-v-karlovej-vsi/","section":"Karlova Ves","status":"Príprava","color":"#f4b860","year":"2023"}},{"type":"Feature","geometry":{"type":"Point","coordinates":[17.108319843650353,48.157301417434866]},"properties":{"title":"Areál Bazová","link":"https://mib.sk/projekt/brownfield-na-bazovej-ulici/","section":"Staré Mesto","status":"Príprava","color":"#f4b860","year":"2023"}},{"type":"Feature","geometry":{"type":"Point","coordinates":[17.1077,48.1526]},"properties":{"title":"Týždeň pre deti","link":"https://mib.sk/projekt/tyzden-pre-deti/","section":"—","status":"Ukončené","color":"#29b826","year":"2022"}},{"type":"Feature","geometry":{"type":"Point","coordinates":[17.18,48.16]},"properties":{"title":"Policajná stanica v Pentagone","link":"https://mib.sk/projekt/policajna-stanica-pentagon/","section":"Vrakuňa","status":"Ukončené","color":"#29b826","year":"2022"}},{"type":"Feature","geometry":{"type":"Point","coordinates":[17.109618942544813,48.19501748149821]},"properties":{"title":"Parčík pri hasičskej stanici","link":"https://mib.sk/projekt/parcik-pri-hasicskej-stanici/","section":"Nové Mesto","status":"Povoľovacie procesy","color":"#4ec5f9","year":"2022"}},{"type":"Feature","geometry":{"type":"Point","coordinates":[17.107861497360577,48.192189054373465]},"properties":{"title":"Mesto pre deti","link":"https://mib.sk/projekt/mesto-pre-deti/","section":"Nové Mesto","status":"Realizácia","color":"#30287B","year":"2022"}},{"type":"Feature","geometry":{"type":"Point","coordinates":[17.10408011531008,48.158472990310116]},"properties":{"title":"Plató Staromestská","link":"https://mib.sk/projekt/plato-staromestska/","section":"Staré Mesto","status":"Príprava","color":"#f4b860","year":"2022"}},{"type":"Feature","geometry":{"type":"Point","coordinates":[17.099840386969806,48.157301417434866]},"properties":{"title":"Lokalita okolo Zochovej ulice","link":"https://mib.sk/projekt/zona-zochova/","section":"Staré Mesto","status":"Realizácia","color":"#30287B","year":"2022"}},{"type":"Feature","geometry":{"type":"Point","coordinates":[17.10346075686214,48.15142842712475]},"properties":{"title":"Mierová ulica","link":"https://mib.sk/projekt/mierova-ulica/","section":"—","status":"Ukončené","color":"#29b826","year":"2022"}},{"type":"Feature","geometry":{"type":"Point","coordinates":[17.098084233990487,48.15447299031012]},"properties":{"title":"Štúrova ulica","link":"https://mib.sk/projekt/sturova-ulica/","section":"Staré Mesto","status":"Ukončené","color":"#29b826","year":"2022"}},{"type":"Feature","geometry":{"type":"Point","coordinates":[17.155,48.205]},"properties":{"title":"Kúpalisko Krasňany","link":"https://mib.sk/projekt/kupalisko-krasnany/","section":"Rača","status":"Príprava","color":"#f4b860","year":"2022"}},{"type":"Feature","geometry":{"type":"Point","coordinates":[17.2,48.21]},"properties":{"title":"Ulica Kataríny Brúderovej","link":"https://mib.sk/projekt/ulica-katariny-bruderovej/","section":"Vajnory","status":"Povoľovacie procesy","color":"#4ec5f9","year":"2022"}},{"type":"Feature","geometry":{"type":"Point","coordinates":[17.088713190291266,48.12372152038834]},"properties":{"title":"Námestie republiky","link":"https://mib.sk/projekt/namestie-republiky/","section":"Petržalka","status":"Príprava","color":"#f4b860","year":"2022"}},{"type":"Feature","geometry":{"type":"Point","coordinates":[17.064239358786,48.152828427124746]},"properties":{"title":"Jurigovo námestie","link":"https://mib.sk/projekt/jurigovo-namestie/","section":"Karlova Ves","status":"Príprava","color":"#f4b860","year":"2022"}},{"type":"Feature","geometry":{"type":"Point","coordinates":[17.099840386969806,48.15164456318537]},"properties":{"title":"Hlavná stanica","link":"https://mib.sk/projekt/hlavna-stanica/","section":"Staré Mesto","status":"Príprava","color":"#f4b860","year":"2022"}},{"type":"Feature","geometry":{"type":"Point","coordinates":[17.10408011531008,48.15047299031012]},"properties":{"title":"Hodžovo námestie","link":"https://mib.sk/projekt/hodzovo-namestie/","section":"Staré Mesto","status":"Ukončené","color":"#29b826","year":"2022"}},{"type":"Feature","geometry":{"type":"Point","coordinates":[17.092950379795575,48.126549947513084]},"properties":{"title":"Janíkov dvor. Pätnásťminútové mesto","link":"https://mib.sk/projekt/janikov-dvor-patnastminutove-mesto/","section":"Petržalka","status":"Príprava","color":"#f4b860","year":"2022"}},{"type":"Feature","geometry":{"type":"Point","coordinates":[17.159243909110973,48.207828427124745]},"properties":{"title":"Kultúrne stredisko Žarnovická","link":"https://mib.sk/projekt/kulturne-stredisko-zarnovicka/","section":"Rača","status":"Ukončené","color":"#29b826","year":"2022"}},{"type":"Feature","geometry":{"type":"Point","coordinates":[17.088713190291266,48.127721520388334]},"properties":{"title":"Sad Janka Kráľa","link":"https://mib.sk/projekt/sad-janka-krala/","section":"Petržalka","status":"Realizácia","color":"#30287B","year":"2021"}},{"type":"Feature","geometry":{"type":"Point","coordinates":[17.161705315997132,48.15588331557614]},"properties":{"title":"Dulovo námestie – východ","link":"https://mib.sk/projekt/dulovo-namestie/","section":"Ružinov","status":"Povoľovacie procesy","color":"#4ec5f9","year":"2021"}},{"type":"Feature","geometry":{"type":"Point","coordinates":[17.101704804860244,48.1486]},"properties":{"title":"Bratislavská mestská dlažba","link":"https://mib.sk/projekt/bratislavskadlazba/","section":"—","status":"Ukončené","color":"#29b826","year":"2021"}},{"type":"Feature","geometry":{"type":"Point","coordinates":[17.084476000786957,48.126549947513084]},"properties":{"title":"Objekt v Sade Janka Kráľa","link":"https://mib.sk/projekt/objekt-v-sade-janka-krala/","section":"Petržalka","status":"Ukončené","color":"#29b826","year":"2021"}},{"type":"Feature","geometry":{"type":"Point","coordinates":[16.985,48.205]},"properties":{"title":"Nové centrálne námestie v Devínskej Novej Vsi","link":"https://mib.sk/projekt/nove-centralne-namestie-devinska-nova-ves/","section":"Devínska Nová Ves","status":"Príprava","color":"#f4b860","year":"2021"}},{"type":"Feature","geometry":{"type":"Point","coordinates":[17.18424018510134,48.162828427124744]},"properties":{"title":"Kazanská ulica","link":"https://mib.sk/projekt/kazanska-ulica/","section":"Vrakuňa","status":"Ukončené","color":"#29b826","year":"2021"}},{"type":"Feature","geometry":{"type":"Point","coordinates":[17.082720899427926,48.12372152038834]},"properties":{"title":"Lávky cez Chorvátske rameno","link":"https://mib.sk/projekt/lavky-cez-chorvatske-rameno/","section":"Petržalka","status":"Povoľovacie procesy","color":"#4ec5f9","year":"2021"}},{"type":"Feature","geometry":{"type":"Point","coordinates":[17.109618942544813,48.18936062724872]},"properties":{"title":"Park Husova","link":"https://mib.sk/projekt/park-husova/","section":"Nové Mesto","status":"Ukončené","color":"#29b826","year":"2021"}},{"type":"Feature","geometry":{"type":"Point","coordinates":[17.04924266675701,48.192828427124745]},"properties":{"title":"Vrančovičova ulica","link":"https://mib.sk/projekt/vrancovicova-ulica/","section":"Lamač","status":"Príprava","color":"#f4b860","year":"2021"}},{"type":"Feature","geometry":{"type":"Point","coordinates":[17.15994921155205,48.15305488845139]},"properties":{"title":"Trhovisko Miletičova","link":"https://mib.sk/projekt/trhovisko-mileticova/","section":"Ružinov","status":"Príprava","color":"#f4b860","year":"2021"}},{"type":"Feature","geometry":{"type":"Point","coordinates":[17.11386179054373,48.18818905437347]},"properties":{"title":"Trnavské mýto","link":"https://mib.sk/projekt/trnavske-myto/","section":"Nové Mesto","status":"Ukončené","color":"#29b826","year":"2021"}},{"type":"Feature","geometry":{"type":"Point","coordinates":[17.108319843650353,48.15164456318537]},"properties":{"title":"Námestie slobody","link":"https://mib.sk/projekt/namestie-slobody/","section":"Staré Mesto","status":"Ukončené","color":"#29b826","year":"2021"}},{"type":"Feature","geometry":{"type":"Point","coordinates":[17.02,48.19]},"properties":{"title":"Motýlia lúka","link":"https://mib.sk/projekt/motylia-luka/","section":"Dúbravka","status":"Ukončené","color":"#29b826","year":"2021"}},{"type":"Feature","geometry":{"type":"Point","coordinates":[17.06,48.153999999999996]},"properties":{"title":"Okolie cintorína Karlova Ves","link":"https://mib.sk/projekt/okolie-cintorina-karlova-ves/","section":"Karlova Ves","status":"Ukončené","color":"#29b826","year":"2021"}},{"type":"Feature","geometry":{"type":"Point","coordinates":[17.112987621222576,48.15853841611856]},"properties":{"title":"Park na Legionárskej","link":"https://mib.sk/projekt/park-legionarska/","section":"Staré Mesto","status":"Ukončené","color":"#29b826","year":"2021"}},{"type":"Feature","geometry":{"type":"Point","coordinates":[17.10606959789043,48.16154960342009]},"properties":{"title":"Na Žilinskej ulici pribudne “zelená” zastávka s pobytovou plochou","link":"https://mib.sk/projekt/parcik-zilinska/","section":"Staré Mesto","status":"Povoľovacie procesy","color":"#4ec5f9","year":"2021"}},{"type":"Feature","geometry":{"type":"Point","coordinates":[17.118104638542647,48.18936062724872]},"properties":{"title":"Klzisko na Partizánskej lúke","link":"https://mib.sk/projekt/klzisko-partizanska-luka/","section":"Nové Mesto","status":"Príprava","color":"#f4b860","year":"2021"}},{"type":"Feature","geometry":{"type":"Point","coordinates":[17.12277585073885,48.196254480181906]},"properties":{"title":"Vyhliadka na Kamzíku","link":"https://mib.sk/projekt/vyhliadka-na-kamziku/","section":"Nové Mesto","status":"Povoľovacie procesy","color":"#4ec5f9","year":"2021"}},{"type":"Feature","geometry":{"type":"Point","coordinates":[17.084476000786957,48.12089309326359]},"properties":{"title":"Skatepark pod Mostom SNP","link":"https://mib.sk/projekt/skatepark-pod-mostom-snp/","section":"Petržalka","status":"Ukončené","color":"#29b826","year":"2021"}},{"type":"Feature","geometry":{"type":"Point","coordinates":[17.09798616264482,48.16041540673747]},"properties":{"title":"Verejný priestor Krížna-Karadžičova","link":"https://mib.sk/projekt/verejny-priestor-krizna-karadzicova/","section":"Staré Mesto","status":"Ukončené","color":"#29b826","year":"2021"}},{"type":"Feature","geometry":{"type":"Point","coordinates":[17.155,48.208999999999996]},"properties":{"title":"Pozorovateľňa zvierat Vydrica","link":"https://mib.sk/projekt/pozorovatelna-zvierat-vydrica/","section":"Rača","status":"Ukončené","color":"#29b826","year":"2021"}},{"type":"Feature","geometry":{"type":"Point","coordinates":[17.11585273701658,48.19926566748344]},"properties":{"title":"Pobytové schody na brehu štvrtého rybníka","link":"https://mib.sk/projekt/pobytove-schody/","section":"Nové Mesto","status":"Ukončené","color":"#29b826","year":"2021"}},{"type":"Feature","geometry":{"type":"Point","coordinates":[17.093472482222058,48.15580022310497]},"properties":{"title":"Park na Dunajskej","link":"https://mib.sk/projekt/park-dunajska/","section":"Staré Mesto","status":"Ukončené","color":"#29b826","year":"2021"}},{"type":"Feature","geometry":{"type":"Point","coordinates":[17.095172609397583,48.15040756450168]},"properties":{"title":"Priestor vedľa zastávok pod Mostom SNP","link":"https://mib.sk/projekt/priestor-vedla-zastavok-pod-mostom-snp/","section":"Staré Mesto","status":"Ukončené","color":"#29b826","year":"2021"}},{"type":"Feature","geometry":{"type":"Point","coordinates":[17.161705315997132,48.150226461326646]},"properties":{"title":"Predpolie cintorínu Prievoz","link":"https://mib.sk/projekt/predpolie-cintorinu-prievoz/","section":"Ružinov","status":"Príprava","color":"#f4b860","year":"2021"}},{"type":"Feature","geometry":{"type":"Point","coordinates":[17.10209063272973,48.147396377200145]},"properties":{"title":"Živé námestie","link":"https://mib.sk/projekt/zive-namestie/","section":"Staré Mesto","status":"Realizácia","color":"#30287B","year":"2021"}},{"type":"Feature","geometry":{"type":"Point","coordinates":[17.10346075686214,48.145771572875255]},"properties":{"title":"Funkčnejšie verejné priestory","link":"https://mib.sk/projekt/funkcnejsie-verejne-priestory/","section":"—","status":"Ukončené","color":"#29b826","year":"2021"}},{"type":"Feature","geometry":{"type":"Point","coordinates":[17.107763353852473,48.19813147080082]},"properties":{"title":"Bufet na Partizánskej lúke","link":"https://mib.sk/projekt/bufet-na-partizanskej-luke/","section":"Nové Mesto","status":"Ukončené","color":"#29b826","year":"2021"}},{"type":"Feature","geometry":{"type":"Point","coordinates":[17.15075609088903,48.207828427124745]},"properties":{"title":"Park na Mudrochovej ulici","link":"https://mib.sk/projekt/park-na-mudrochovej/","section":"Rača","status":"Povoľovacie procesy","color":"#4ec5f9","year":"2021"}},{"type":"Feature","geometry":{"type":"Point","coordinates":[17.148998206177787,48.205]},"properties":{"title":"Vozovňa Krasňany","link":"https://mib.sk/projekt/vozovna-krasnany/","section":"Rača","status":"Ukončené","color":"#29b826","year":"2021"}},{"type":"Feature","geometry":{"type":"Point","coordinates":[17.165944927165384,48.149054888451396]},"properties":{"title":"Okolie jazera Rohlík","link":"https://mib.sk/projekt/okolie-jazera-rohlik/","section":"Ružinov","status":"Povoľovacie procesy","color":"#4ec5f9","year":"2021"}},{"type":"Feature","geometry":{"type":"Point","coordinates":[17.11017406797534,48.148530573882766]},"properties":{"title":"Odborárske námestie","link":"https://mib.sk/projekt/odborarske-namestie/","section":"Staré Mesto","status":"Príprava","color":"#f4b860","year":"2021"}},{"type":"Feature","geometry":{"type":"Point","coordinates":[17.024242666757008,48.192828427124745]},"properties":{"title":"Okolie Domu služieb Dúbravka","link":"https://mib.sk/projekt/dom-sluzieb-dubravka/","section":"Dúbravka","status":"Realizácia","color":"#30287B","year":"2021"}},{"type":"Feature","geometry":{"type":"Point","coordinates":[17.1146877483981,48.15314575751527]},"properties":{"title":"Parčík na Radlinského ulici","link":"https://mib.sk/projekt/parcik-na-radlinskeho/","section":"Staré Mesto","status":"Povoľovacie procesy","color":"#4ec5f9","year":"2021"}},{"type":"Feature","geometry":{"type":"Point","coordinates":[17.1077,48.144600000000004]},"properties":{"title":"Prenájom vybraných mestských priestorov","link":"https://mib.sk/projekt/prenajom-vybranych-mestskych-priestorov/","section":"—","status":"Ukončené","color":"#29b826","year":"2020"}},{"type":"Feature","geometry":{"type":"Point","coordinates":[17.10972901594688,48.164166196804175]},"properties":{"title":"Vnútroblok Poľská Justičná","link":"https://mib.sk/projekt/vnutroblok-polska-justicna/","section":"Staré Mesto","status":"Ukončené","color":"#29b826","year":"2020"}},{"type":"Feature","geometry":{"type":"Point","coordinates":[17.055760641213997,48.152828427124746]},"properties":{"title":"Multifunkčný park pre rôzne vekové kategórie","link":"https://mib.sk/projekt/multifunkcny-park-pre-rozne-vekove-kategorie/","section":"Karlova Ves","status":"Ukončené","color":"#29b826","year":"2020"}},{"type":"Feature","geometry":{"type":"Point","coordinates":[17.088713190291266,48.11972152038834]},"properties":{"title":"Okolie Pamätníka obetiam extrémizmu","link":"https://mib.sk/projekt/okolie-pamatnika-obetiam-extremizmu/","section":"Petržalka","status":"Ukončené","color":"#29b826","year":"2020"}},{"type":"Feature","geometry":{"type":"Point","coordinates":[17.07,48.23]},"properties":{"title":"Malý Slavín","link":"https://mib.sk/projekt/maly-slavin/","section":"Záhorská Bystrica","status":"Ukončené","color":"#29b826","year":"2020"}},{"type":"Feature","geometry":{"type":"Point","coordinates":[17.11193924313786,48.145771572875255]},"properties":{"title":"Bratislavský mobiliár","link":"https://mib.sk/projekt/bratislavsky-mobiliar-lavicka-kos-a-cyklostojan-zlepsia-verejne-priestory/","section":"—","status":"Ukončené","color":"#29b826","year":"2020"}},{"type":"Feature","geometry":{"type":"Point","coordinates":[17.10324635219283,48.193516287168315]},"properties":{"title":"Včelia lúka","link":"https://mib.sk/projekt/vcelia-luka/","section":"Nové Mesto","status":"Ukončené","color":"#29b826","year":"2020"}},{"type":"Feature","geometry":{"type":"Point","coordinates":[17.10494773034861,48.18812362856502]},"properties":{"title":"Promenáda na Železnej studničke","link":"https://mib.sk/projekt/promenada-zelezna-studnicka/","section":"Nové Mesto","status":"Povoľovacie procesy","color":"#4ec5f9","year":"2020"}},{"type":"Feature","geometry":{"type":"Point","coordinates":[17.116606486520915,48.15266542580844]},"properties":{"title":"Sadni si!","link":"https://mib.sk/projekt/sadni-si/","section":"—","status":"Ukončené","color":"#29b826","year":"2020"}},{"type":"Feature","geometry":{"type":"Point","coordinates":[17.170184538333636,48.150226461326646]},"properties":{"title":"Nájomný bytový dom na Parkovej ulici","link":"https://mib.sk/projekt/najomny-bytovy-dom-na-parkovej-ulici/","section":"Ružinov","status":"Ukončené","color":"#29b826","year":"2020"}},{"type":"Feature","geometry":{"type":"Point","coordinates":[17.17485218690398,48.157120314259835]},"properties":{"title":"Nájomné byty na Terchovskej ulici","link":"https://mib.sk/projekt/najomne-byty-na-terchovskej-ulici/","section":"Ružinov","status":"Povoľovacie procesy","color":"#4ec5f9","year":"2020"}},{"type":"Feature","geometry":{"type":"Point","coordinates":[17.09780035068636,48.16399186885773]},"properties":{"title":"Komenského námestie","link":"https://mib.sk/projekt/komenskeho-namestie/","section":"Staré Mesto","status":"Ukončené","color":"#29b826","year":"2020"}},{"type":"Feature","geometry":{"type":"Point","coordinates":[17.11187084407088,48.18511244126349]},"properties":{"title":"Hájovňa na Peknej ceste","link":"https://mib.sk/projekt/hajovna-na-peknej-ceste/","section":"Nové Mesto","status":"Ukončené","color":"#29b826","year":"2020"}},{"type":"Feature","geometry":{"type":"Point","coordinates":[17.089550286373907,48.15824151095668]},"properties":{"title":"Grössling","link":"https://mib.sk/projekt/kupele-grossling/","section":"Staré Mesto","status":"Realizácia","color":"#30287B","year":"2020"}},{"type":"Feature","geometry":{"type":"Point","coordinates":[17.0898115987933,48.15028360477095]},"properties":{"title":"Pocket Park Židovská","link":"https://mib.sk/projekt/pocket-park-zidovska/","section":"Staré Mesto","status":"Ukončené","color":"#29b826","year":"2020"}},{"type":"Feature","geometry":{"type":"Point","coordinates":[17.09843121467328,48.14477978381606]},"properties":{"title":"Krížna ulica","link":"https://mib.sk/projekt/lepsia-krizna-ulica/","section":"Staré Mesto","status":"Príprava","color":"#f4b860","year":"2020"}}]}