{"type":"FeatureCollection","features":[{"type":"Feature","geometry":{"type":"LineString","coordinates":[[17.118992,48.127257],[17.115378,48.123532],[17.115216,48.123398],[17.115032,48.123293],[17.114926,48.123247],[17.114802,48.123208],[17.114684,48.12318],[17.114548,48.123165],[17.113094,48.123214]]},"properties":{"name":"Chorv\u00e1tske rameno","kind":"canal"}},{"type":"Feature","geometry":{"type":"LineString","coordinates":[[17.113094,48.123214],[17.111534,48.123268],[17.111139,48.123265],[17.110678,48.123213],[17.110288,48.123133],[17.109928,48.123033],[17.109567,48.122892],[17.109287,48.122756],[17.109014,48.122598],[17.108774,48.122405],[17.10857,48.122206],[17.108384,48.121977],[17.108227,48.121725],[17.108113,48.121387],[17.108056,48.121024],[17.107964,48.119802],[17.107888,48.119312],[17.107772,48.118964],[17.107704,48.118779],[17.10763,48.118625],[17.107277,48.117943],[17.10682,48.117021],[17.106723,48.116811],[17.106641,48.116587],[17.106591,48.116393],[17.106573,48.116198],[17.106564,48.115995],[17.106588,48.115781],[17.106659,48.115426],[17.1067,48.115265],[17.106758,48.115104],[17.106861,48.114905],[17.106994,48.114696],[17.107296,48.114295],[17.10789,48.113509]]},"properties":{"name":"Chorv\u00e1tske rameno","kind":"canal"}},{"type":"Feature","geometry":{"type":"LineString","coordinates":[[17.057247,48.14314],[17.059228,48.143513],[17.066573,48.143565],[17.07288,48.142718],[17.073401,48.142648],[17.07444,48.142509],[17.083227,48.140978],[17.089674,48.139704]]},"properties":{"name":"Dunaj","kind":"river"}},{"type":"Feature","geometry":{"type":"LineString","coordinates":[[17.127983,48.137299],[17.133313,48.136588],[17.13777,48.135258],[17.142758,48.131932],[17.145353,48.127808],[17.14549,48.126191],[17.145619,48.124682]]},"properties":{"name":"Dunaj","kind":"river"}},{"type":"Feature","geometry":{"type":"LineString","coordinates":[[17.089674,48.139704],[17.093138,48.139049],[17.100521,48.138318],[17.10837,48.138318],[17.117214,48.138259],[17.117261,48.138258]]},"properties":{"name":"Dunaj","kind":"river"}},{"type":"Feature","geometry":{"type":"LineString","coordinates":[[17.117261,48.138258],[17.119147,48.138219],[17.126329,48.137519],[17.127983,48.137299]]},"properties":{"name":"Dunaj","kind":"river"}}]}