{"type":"FeatureCollection","features":[{"type":"Feature","geometry":{"type":"Polygon","coordinates":[[[17.143222,48.134578],[17.142708,48.134187],[17.142084,48.134798],[17.141945,48.134977],[17.141929,48.135135],[17.141987,48.135308],[17.1419,48.135531],[17.141565,48.135886],[17.141067,48.136267],[17.140196,48.136663],[17.138108,48.137487],[17.13741,48.137727],[17.136736,48.137931],[17.13567,48.138164],[17.134007,48.138424],[17.131663,48.138797],[17.131003,48.138993],[17.130935,48.139058],[17.131056,48.13941],[17.131158,48.139707],[17.131163,48.139742],[17.132208,48.139589],[17.132248,48.139525],[17.137822,48.138619],[17.137885,48.138661],[17.137974,48.138601],[17.138918,48.138445],[17.139037,48.138442],[17.139153,48.138475],[17.139206,48.138504],[17.139271,48.138579],[17.139282,48.138681],[17.139053,48.138956],[17.138976,48.139003],[17.138833,48.13904],[17.136703,48.139423],[17.136671,48.139477],[17.134741,48.139791],[17.134658,48.139742],[17.132658,48.140072],[17.13205,48.140304],[17.131788,48.140444],[17.131502,48.140644],[17.131307,48.140837],[17.131287,48.140903],[17.13134,48.140953],[17.131691,48.141016],[17.132306,48.141076],[17.134946,48.140992],[17.137481,48.140916],[17.137598,48.140876],[17.137808,48.140848],[17.138039,48.140782],[17.138517,48.140654],[17.138858,48.140517],[17.139376,48.140206],[17.139754,48.139905],[17.140669,48.138487],[17.141854,48.136692],[17.142079,48.136761],[17.14286,48.135508],[17.142801,48.135353],[17.143222,48.134578]]]},"properties":{"name":"Zimn\u00fd pr\u00edstav"}},{"type":"Feature","geometry":{"type":"Polygon","coordinates":[[[17.143027,48.127003],[17.142753,48.127222],[17.142558,48.127449],[17.142437,48.127686],[17.142314,48.127798],[17.141807,48.12827],[17.141549,48.12867],[17.141407,48.128891],[17.141287,48.128984],[17.141161,48.129081],[17.140747,48.129328],[17.140547,48.129394],[17.139793,48.129543],[17.139334,48.12959],[17.138886,48.129653],[17.138415,48.12974],[17.138356,48.129921],[17.138521,48.130094],[17.13898,48.130172],[17.13944,48.130078],[17.139522,48.129826],[17.139499,48.129661],[17.140535,48.1297],[17.140936,48.129567],[17.14188,48.128982],[17.142073,48.128675],[17.142138,48.12872],[17.143027,48.127003]]]},"properties":{"name":"Ovsi\u0161tsk\u00e9 rameno"}},{"type":"Feature","geometry":{"type":"Polygon","coordinates":[[[17.107787,48.148556],[17.107778,48.148536],[17.107762,48.148517],[17.10774,48.148502],[17.107713,48.148491],[17.107682,48.148485],[17.10765,48.148484],[17.107619,48.148488],[17.107591,48.148498],[17.107566,48.148511],[17.107548,48.148528],[17.107536,48.148548],[17.107531,48.148569],[17.107534,48.14859],[17.107545,48.148609],[17.107562,48.148626],[17.107584,48.14864],[17.107611,48.14865],[17.10764,48.148655],[17.10767,48.148656],[17.1077,48.148652],[17.107728,48.148643],[17.107752,48.148631],[17.107771,48.148615],[17.107783,48.148596],[17.107789,48.148576],[17.107787,48.148556]]]},"properties":{"name":""}},{"type":"Feature","geometry":{"type":"Polygon","coordinates":[[[17.111569,48.152291],[17.111594,48.152299],[17.111621,48.152307],[17.111649,48.152312],[17.111677,48.152316],[17.111705,48.152318],[17.111734,48.152318],[17.111762,48.152316],[17.111791,48.152312],[17.111802,48.15231],[17.111818,48.152307],[17.111845,48.1523],[17.11187,48.152291],[17.111894,48.152281],[17.111917,48.152269],[17.111938,48.152256],[17.111957,48.152241],[17.111973,48.152226],[17.111988,48.152209],[17.112,48.152192],[17.112009,48.152174],[17.112016,48.152155],[17.11202,48.152136],[17.112022,48.152117],[17.11202,48.152098],[17.112016,48.152079],[17.11201,48.15206],[17.112001,48.152042],[17.111989,48.152025],[17.111975,48.152008],[17.111958,48.151993],[17.111939,48.151978],[17.111919,48.151965],[17.111893,48.151951],[17.111866,48.15194],[17.111832,48.151929],[17.111806,48.151923],[17.111774,48.151918],[17.111742,48.151915],[17.111709,48.151915],[17.111677,48.151917],[17.111645,48.151921],[17.111614,48.151928],[17.111584,48.151936],[17.111556,48.151947],[17.11153,48.15196],[17.111506,48.151974],[17.111484,48.15199],[17.111465,48.152008],[17.111449,48.152027],[17.111436,48.152047],[17.111427,48.152068],[17.111421,48.152089],[17.111418,48.15211],[17.111419,48.152132],[17.111423,48.152154],[17.111431,48.152175],[17.111442,48.152195],[17.111456,48.152214],[17.111473,48.152233],[17.111494,48.15225],[17.111517,48.152265],[17.111542,48.152279],[17.111569,48.152291]]]},"properties":{"name":"Font\u00e1na Dru\u017eba"}},{"type":"Feature","geometry":{"type":"Polygon","coordinates":[[[17.107127,48.141448],[17.107146,48.141422],[17.108035,48.141716],[17.108015,48.141743],[17.107924,48.141713],[17.107127,48.141448]]]},"properties":{"name":""}},{"type":"Feature","geometry":{"type":"Polygon","coordinates":[[[17.13383,48.149608],[17.133823,48.149619],[17.133822,48.149631],[17.133826,48.149642],[17.133837,48.149651],[17.133851,48.149657],[17.133866,48.14966],[17.133882,48.14966],[17.133896,48.149656],[17.133908,48.149649],[17.133917,48.14964],[17.133921,48.14963],[17.13392,48.14962],[17.133914,48.14961],[17.133905,48.149602],[17.133892,48.149597],[17.133875,48.149594],[17.133857,48.149595],[17.133842,48.1496],[17.13383,48.149608]]]},"properties":{"name":"Font\u00e1na milencov"}},{"type":"Feature","geometry":{"type":"Polygon","coordinates":[[[17.119685,48.150033],[17.119705,48.150025],[17.119718,48.150014],[17.119721,48.150004],[17.119715,48.149978],[17.119733,48.149965],[17.11974,48.149954],[17.119741,48.149944],[17.119737,48.149936],[17.11973,48.149928],[17.119715,48.149917],[17.119666,48.149913],[17.119646,48.149889],[17.119625,48.149886],[17.119605,48.149889],[17.119582,48.149897],[17.119572,48.14991],[17.119581,48.149936],[17.119571,48.149951],[17.119566,48.149958],[17.119561,48.149965],[17.119559,48.149972],[17.119559,48.149984],[17.119567,48.149995],[17.119577,48.150004],[17.119589,48.150008],[17.119603,48.150011],[17.119617,48.150009],[17.119629,48.15002],[17.119646,48.150031],[17.119665,48.150034],[17.119685,48.150033]]]},"properties":{"name":"Labutia font\u00e1na"}},{"type":"Feature","geometry":{"type":"Polygon","coordinates":[[[17.115382,48.142602],[17.115426,48.142618],[17.115543,48.142656],[17.115569,48.142621],[17.115573,48.14262],[17.115594,48.142592],[17.115428,48.142536],[17.115382,48.142602]]]},"properties":{"name":"Mar\u00edna"}},{"type":"Feature","geometry":{"type":"Polygon","coordinates":[[[17.108055,48.150936],[17.108028,48.150713],[17.107848,48.150724],[17.107881,48.150947],[17.108055,48.150936]]]},"properties":{"name":""}},{"type":"Feature","geometry":{"type":"Polygon","coordinates":[[[17.129648,48.152644],[17.129732,48.152635],[17.12977,48.152683],[17.12971,48.152723],[17.129634,48.152696],[17.129648,48.152644]]]},"properties":{"name":"Font\u00e1na Plastika s raketou"}},{"type":"Feature","geometry":{"type":"Polygon","coordinates":[[[17.108189,48.141716],[17.108203,48.141712],[17.108214,48.141705],[17.10822,48.141696],[17.108222,48.141686],[17.108218,48.141677],[17.108136,48.141649],[17.108107,48.141688],[17.108189,48.141716]]]},"properties":{"name":""}},{"type":"Feature","geometry":{"type":"Polygon","coordinates":[[[17.125299,48.153431],[17.125388,48.153404],[17.125378,48.153338],[17.125335,48.153344],[17.125323,48.153381],[17.125283,48.153404],[17.125299,48.153431]]]},"properties":{"name":"Oddych"}},{"type":"Feature","geometry":{"type":"Polygon","coordinates":[[[17.122436,48.152255],[17.122446,48.15226],[17.122455,48.152265],[17.122462,48.152272],[17.122467,48.15228],[17.12247,48.152288],[17.122471,48.152296],[17.12247,48.152305],[17.122466,48.152313],[17.12246,48.15232],[17.122453,48.152327],[17.122444,48.152332],[17.122433,48.152337],[17.122422,48.15234],[17.122409,48.152342],[17.122397,48.152342],[17.122384,48.152341],[17.122373,48.152338],[17.122362,48.152334],[17.122352,48.152329],[17.122345,48.152324],[17.122339,48.152318],[17.122335,48.152311],[17.122332,48.152304],[17.122331,48.152297],[17.122331,48.15229],[17.122333,48.152283],[17.122337,48.152276],[17.122342,48.15227],[17.122349,48.152264],[17.122356,48.152259],[17.122365,48.152255],[17.122374,48.152252],[17.122384,48.15225],[17.122395,48.152249],[17.122405,48.152249],[17.122416,48.15225],[17.122426,48.152252],[17.122436,48.152255]]]},"properties":{"name":"Font\u00e1na Nata\u0161a"}},{"type":"Feature","geometry":{"type":"Polygon","coordinates":[[[17.123665,48.152749],[17.123675,48.152754],[17.123684,48.15276],[17.123692,48.152767],[17.123697,48.152775],[17.1237,48.152783],[17.1237,48.152791],[17.123698,48.1528],[17.123694,48.152808],[17.123688,48.152816],[17.12368,48.152822],[17.12367,48.152828],[17.123659,48.152832],[17.123647,48.152835],[17.123634,48.152836],[17.123621,48.152836],[17.123609,48.152834],[17.123597,48.152831],[17.123586,48.152826],[17.123577,48.152821],[17.12357,48.152814],[17.123565,48.152807],[17.123561,48.152799],[17.123559,48.152791],[17.12356,48.152782],[17.123563,48.152774],[17.123568,48.152767],[17.123575,48.15276],[17.123584,48.152754],[17.123594,48.152749],[17.123605,48.152745],[17.123617,48.152743],[17.123629,48.152742],[17.123642,48.152743],[17.123654,48.152745],[17.123665,48.152749]]]},"properties":{"name":"Font\u00e1na Marta"}},{"type":"Feature","geometry":{"type":"Polygon","coordinates":[[[17.122723,48.153173],[17.122602,48.153112],[17.122632,48.153108],[17.122691,48.153115],[17.122738,48.153141],[17.122723,48.153173]]]},"properties":{"name":""}},{"type":"Feature","geometry":{"type":"Polygon","coordinates":[[[17.098335,48.141734],[17.098454,48.141714],[17.098459,48.141711],[17.098465,48.141706],[17.098469,48.1417],[17.098471,48.14169],[17.098465,48.14168],[17.098461,48.141674],[17.098455,48.141671],[17.098448,48.141667],[17.098427,48.141666],[17.098318,48.141682],[17.098335,48.141734]]]},"properties":{"name":""}},{"type":"Feature","geometry":{"type":"Polygon","coordinates":[[[17.108689,48.141647],[17.108683,48.141644],[17.108678,48.141641],[17.108674,48.141636],[17.108672,48.141632],[17.108671,48.141627],[17.108671,48.141622],[17.108672,48.141618],[17.108674,48.141613],[17.108678,48.141609],[17.108683,48.141605],[17.108689,48.141602],[17.108695,48.1416],[17.108702,48.141598],[17.108709,48.141598],[17.108717,48.141598],[17.108724,48.141599],[17.108731,48.141601],[17.108737,48.141604],[17.108742,48.141607],[17.108746,48.141611],[17.108749,48.141614],[17.10875,48.141617],[17.108752,48.141621],[17.108752,48.141624],[17.108752,48.141627],[17.108751,48.141631],[17.108749,48.141634],[17.108747,48.141638],[17.108745,48.14164],[17.108741,48.141643],[17.108737,48.141646],[17.108733,48.141648],[17.108729,48.141649],[17.108724,48.141651],[17.108719,48.141652],[17.108714,48.141652],[17.108708,48.141652],[17.108703,48.141651],[17.108698,48.14165],[17.108693,48.141649],[17.108689,48.141647]]]},"properties":{"name":""}},{"type":"Feature","geometry":{"type":"Polygon","coordinates":[[[17.123389,48.140894],[17.123378,48.140889],[17.123365,48.140886],[17.123352,48.140886],[17.12334,48.140888],[17.123328,48.140893],[17.12332,48.1409],[17.123315,48.140908],[17.123313,48.140917],[17.123316,48.140925],[17.123322,48.140933],[17.123331,48.140939],[17.123343,48.140943],[17.123356,48.140945],[17.123369,48.140944],[17.123381,48.14094],[17.123391,48.140934],[17.123398,48.140927],[17.123401,48.140918],[17.123401,48.140909],[17.123396,48.140901],[17.123389,48.140894]]]},"properties":{"name":""}},{"type":"Feature","geometry":{"type":"Polygon","coordinates":[[[17.123079,48.140171],[17.123384,48.140149],[17.123364,48.140023],[17.123059,48.140045],[17.123079,48.140171]]]},"properties":{"name":""}},{"type":"Feature","geometry":{"type":"Polygon","coordinates":[[[17.123151,48.140676],[17.123137,48.140583],[17.12345,48.140562],[17.123464,48.140655],[17.123151,48.140676]]]},"properties":{"name":"Kask\u00e1dy"}},{"type":"Feature","geometry":{"type":"Polygon","coordinates":[[[17.102531,48.130165],[17.102586,48.130186],[17.102659,48.130254],[17.102752,48.130247],[17.102837,48.130216],[17.102849,48.130182],[17.102831,48.130163],[17.10277,48.130136],[17.102687,48.130023],[17.102727,48.130009],[17.102775,48.130045],[17.102818,48.13009],[17.10288,48.130149],[17.102916,48.130191],[17.10288,48.130248],[17.102742,48.130295],[17.102625,48.130289],[17.102487,48.130207],[17.102485,48.130182],[17.102531,48.130165]]]},"properties":{"name":""}},{"type":"Feature","geometry":{"type":"Polygon","coordinates":[[[17.100658,48.143446],[17.10065,48.143418],[17.100669,48.143398],[17.100717,48.143394],[17.100743,48.143406],[17.10075,48.143431],[17.100735,48.143453],[17.100682,48.143458],[17.100658,48.143446]]]},"properties":{"name":""}},{"type":"Feature","geometry":{"type":"Polygon","coordinates":[[[17.139004,48.145713],[17.139002,48.145728],[17.139004,48.145751],[17.139014,48.145782],[17.139035,48.1458],[17.139067,48.145809],[17.139101,48.145808],[17.139123,48.1458],[17.139162,48.145773],[17.139181,48.145756],[17.139198,48.145733],[17.13921,48.145708],[17.139215,48.145691],[17.139216,48.145687],[17.139218,48.145663],[17.139214,48.145641],[17.139202,48.145622],[17.13919,48.145611],[17.139176,48.145603],[17.139152,48.1456],[17.13913,48.1456],[17.139105,48.145607],[17.139078,48.14562],[17.139045,48.145649],[17.139021,48.145684],[17.139004,48.145713]]]},"properties":{"name":""}},{"type":"Feature","geometry":{"type":"Polygon","coordinates":[[[17.122905,48.12857],[17.122915,48.128585],[17.12293,48.128595],[17.122939,48.12861],[17.12294,48.128619],[17.122937,48.128628],[17.122926,48.128636],[17.12291,48.128638],[17.122891,48.128636],[17.122876,48.12863],[17.122865,48.128623],[17.122859,48.128613],[17.122858,48.128603],[17.122853,48.128594],[17.122839,48.128586],[17.122822,48.128575],[17.122819,48.128563],[17.122823,48.128553],[17.122836,48.128544],[17.122853,48.128539],[17.122874,48.128533],[17.122885,48.128524],[17.122894,48.128515],[17.122909,48.12851],[17.122924,48.12851],[17.122937,48.128516],[17.122942,48.128528],[17.122937,48.128538],[17.122922,48.128547],[17.12291,48.128558],[17.122905,48.12857]]]},"properties":{"name":""}},{"type":"Feature","geometry":{"type":"Polygon","coordinates":[[[17.122898,48.128412],[17.122898,48.128383],[17.122911,48.128349],[17.122941,48.128329],[17.12297,48.128323],[17.122995,48.128337],[17.122995,48.128366],[17.122975,48.1284],[17.122952,48.128424],[17.122918,48.128427],[17.122898,48.128412]]]},"properties":{"name":""}},{"type":"Feature","geometry":{"type":"Polygon","coordinates":[[[17.103172,48.135217],[17.103161,48.135226],[17.103154,48.135236],[17.103153,48.135248],[17.103158,48.135259],[17.103167,48.135269],[17.103181,48.135277],[17.103197,48.135281],[17.103215,48.135281],[17.103233,48.135278],[17.103248,48.13527],[17.103259,48.135259],[17.103264,48.135247],[17.103262,48.135235],[17.103253,48.135223],[17.10324,48.135214],[17.103223,48.135209],[17.103204,48.135208],[17.103187,48.13521],[17.103172,48.135217]]]},"properties":{"name":""}},{"type":"Feature","geometry":{"type":"Polygon","coordinates":[[[17.098017,48.14172],[17.098119,48.141703],[17.098143,48.141771],[17.098042,48.141787],[17.098017,48.14172]]]},"properties":{"name":""}},{"type":"Feature","geometry":{"type":"Polygon","coordinates":[[[17.131328,48.154951],[17.131341,48.154953],[17.131354,48.154953],[17.131366,48.154949],[17.131376,48.154943],[17.131383,48.154935],[17.131385,48.154926],[17.131384,48.154918],[17.131378,48.154909],[17.131369,48.154903],[17.131357,48.154899],[17.131347,48.154897],[17.131334,48.154897],[17.131321,48.154901],[17.131311,48.154907],[17.131304,48.154914],[17.131301,48.154923],[17.131302,48.154931],[17.131308,48.15494],[17.131316,48.154947],[17.131328,48.154951]]]},"properties":{"name":""}},{"type":"Feature","geometry":{"type":"Polygon","coordinates":[[[17.099765,48.152417],[17.099783,48.15243],[17.099732,48.152462],[17.099714,48.15245],[17.099765,48.152417]]]},"properties":{"name":""}},{"type":"Feature","geometry":{"type":"Polygon","coordinates":[[[17.121722,48.129626],[17.121722,48.129618],[17.121742,48.129616],[17.121758,48.129612],[17.121758,48.1296],[17.12174,48.129595],[17.121722,48.129594],[17.121722,48.129587],[17.122038,48.129576],[17.122042,48.129615],[17.121722,48.129626]]]},"properties":{"name":"Font\u00e1na na Lu\u017enej"}},{"type":"Feature","geometry":{"type":"Polygon","coordinates":[[[17.098196,48.141757],[17.09823,48.141752],[17.098211,48.141702],[17.098178,48.141707],[17.098196,48.141757]]]},"properties":{"name":""}}]}